[{"OBJECT_NAME":"ONEWEB-0423","OBJECT_ID":"2022-012F","EPOCH":"2026-03-09T21:30:26.754336","MEAN_MOTION":13.17648424,"ECCENTRICITY":0.00017659,"INCLINATION":87.916,"RA_OF_ASC_NODE":25.5764,"ARG_OF_PERICENTER":82.6337,"MEAN_ANOMALY":277.4995,"EPHEMERIS_TYPE":0,"CLASSIFICATION_TYPE":"U","NORAD_CAT_ID":51627,"ELEMENT_SET_NO":999,"REV_AT_EPOCH":20062,"BSTAR":0.00014989039,"MEAN_MOTION_DOT":7.1e-7,"MEAN_MOTION_DDOT":0},{"OBJECT_NAME":"BREEZE-KM DEB","OBJECT_ID":"2015-020L","EPOCH":"2026-03-08T03:10:36.885504","MEAN_MOTION":12.92886112,"ECCENTRICITY":0.02211074,"INCLINATION":82.486,"RA_OF_ASC_NODE":217.4544,"ARG_OF_PERICENTER":105.5363,"MEAN_ANOMALY":257.0274,"EPHEMERIS_TYPE":0,"CLASSIFICATION_TYPE":"U","NORAD_CAT_ID":41723,"ELEMENT_SET_NO":999,"REV_AT_EPOCH":48627,"BSTAR":0.00078945926,"MEAN_MOTION_DOT":2.53e-6,"MEAN_MOTION_DDOT":0}]
